$$SOE
2461302.500000000, A.D. 2026-Sep-19 00:00:00.0000, -2.717437363806883E+08, -7.089634774098125E+07, 1.019418169953489E+08,
2461309.500000000, A.D. 2026-Sep-26 00:00:00.0000, -2.694152650154302E+08, -8.060499348837630E+07, 1.079172565666103E+08,
2461316.500000000, A.D. 2026-Oct-03 00:00:00.0000, -2.666081999733196E+08, -9.017049708324006E+07, 1.137010272814316E+08,
2461323.500000000, A.D. 2026-Oct-10 00:00:00.0000, -2.633383620078631E+08, -9.957952974968633E+07, 1.192874717283631E+08,
2461330.500000000, A.D. 2026-Oct-17 00:00:00.0000, -2.596213205606551E+08, -1.088195005192800E+08, 1.246713716171769E+08,
2461337.500000000, A.D. 2026-Oct-24 00:00:00.0000, -2.554723927639418E+08, -1.178784926657884E+08, 1.298479053455335E+08,
2461344.500000000, A.D. 2026-Oct-31 00:00:00.0000, -2.509066461984065E+08, -1.267452051878407E+08, 1.348126095628735E+08,
2461351.500000000, A.D. 2026-Nov-07 00:00:00.0000, -2.459389044283562E+08, -1.354088989290236E+08, 1.395613443543175E+08,
2461358.500000000, A.D. 2026-Nov-14 00:00:00.0000, -2.405837545814590E+08, -1.438593461204827E+08, 1.440902617739267E+08,
2461365.500000000, A.D. 2026-Nov-21 00:00:00.0000, -2.348555583432070E+08, -1.520867823508640E+08, 1.483957776510693E+08,
2461372.500000000, A.D. 2026-Nov-28 00:00:00.0000, -2.287684670012744E+08, -1.600818636779391E+08, 1.524745462457581E+08,
2461379.500000000, A.D. 2026-Dec-05 00:00:00.0000, -2.223364366267847E+08, -1.678356292634717E+08, 1.563234371272946E+08,
2461386.500000000, A.D. 2026-Dec-12 00:00:00.0000, -2.155732429902261E+08, -1.753394661600158E+08, 1.599395142985377E+08,
2461393.500000000, A.D. 2026-Dec-19 00:00:00.0000, -2.084924979068346E+08, -1.825850760007120E+08, 1.633200175403130E+08,
2461400.500000000, A.D. 2026-Dec-26 00:00:00.0000, -2.011076670012233E+08, -1.895644442412489E+08, 1.664623457389658E+08,
2461407.500000000, A.D. 2027-Jan-02 00:00:00.0000, -1.934320884994296E+08, -1.962698119490442E+08, 1.693640420004555E+08,
2461414.500000000, A.D. 2027-Jan-09 00:00:00.0000, -1.854789928476781E+08, -2.026936499418936E+08, 1.720227804078405E+08,
2461421.500000000, A.D. 2027-Jan-16 00:00:00.0000, -1.772615230655113E+08, -2.088286351060703E+08, 1.744363543027094E+08,
2461428.500000000, A.D. 2027-Jan-23 00:00:00.0000, -1.687927557526098E+08, -2.146676287895731E+08, 1.766026659813987E+08,
2461435.500000000, A.D. 2027-Jan-30 00:00:00.0000, -1.600857225464278E+08, -2.202036571919503E+08, 1.785197176983922E+08,
2461442.500000000, A.D. 2027-Feb-06 00:00:00.0000, -1.511534316083627E+08, -2.254298933010221E+08, 1.801856038941828E+08,
2461449.500000000, A.D. 2027-Feb-13 00:00:00.0000, -1.420088896169185E+08, -2.303396390626466E+08, 1.815985047313349E+08,
2461456.500000000, A.D. 2027-Feb-20 00:00:00.0000, -1.326651266630403E+08, -2.349263084958893E+08, 1.827566810443892E+08,
2461463.500000000, A.D. 2027-Feb-27 00:00:00.0000, -1.231352226946518E+08, -2.391834149061109E+08, 1.836584702795204E+08,
2461470.500000000, A.D. 2027-Mar-06 00:00:00.0000, -1.134323325472373E+08, -2.431045602289734E+08, 1.843022832846906E+08,
2461477.500000000, A.D. 2027-Mar-13 00:00:00.0000, -1.035697112252018E+08, -2.466834244265579E+08, 1.846866022552789E+08,
2461484.500000000, A.D. 2027-Mar-20 00:00:00.0000, -9.356074063433018E+07, -2.499137557583646E+08, 1.848099798723508E+08,
2461491.500000000, A.D. 2027-Mar-27 00:00:00.0000, -8.341895764050654E+07, -2.527893624836209E+08, 1.846710395873123E+08,
2461498.500000000, A.D. 2027-Apr-03 00:00:00.0000, -7.315808333660042E+07, -2.553041060693246E+08, 1.842684770653397E+08,
2461505.500000000, A.D. 2027-Apr-10 00:00:00.0000, -6.279205355007295E+07, -2.574518959264782E+08, 1.836010628364609E+08,
2461512.500000000, A.D. 2027-Apr-17 00:00:00.0000, -5.233505067222653E+07, -2.592266857537726E+08, 1.826676462196992E+08,
2461519.500000000, A.D. 2027-Apr-24 00:00:00.0000, -4.180153684052613E+07, -2.606224716374593E+08, 1.814671605912066E+08,
2461526.500000000, A.D. 2027-May-01 00:00:00.0000, -3.120628829029683E+07, -2.616332919909918E+08, 1.799986300699426E+08,
2461533.500000000, A.D. 2027-May-08 00:00:00.0000, -2.056443068786339E+07, -2.622532287254696E+08, 1.782611777704402E+08,
2461540.500000000, A.D. 2027-May-15 00:00:00.0000, -9.891477063571945E+06, -2.624764088676128E+08, 1.762540359740115E+08,
2461547.500000000, A.D. 2027-May-22 00:00:00.0000, 7.966299709486194E+05, -2.622970094211611E+08, 1.739765583075692E+08,
2461554.500000000, A.D. 2027-May-29 00:00:00.0000, 1.148347496077303E+07, -2.617092671842403E+08, 1.714282336871494E+08,
2461561.500000000, A.D. 2027-Jun-05 00:00:00.0000, 2.215212607335202E+07, -2.607074906801050E+08, 1.686087024173076E+08,
2461568.500000000, A.D. 2027-Jun-12 00:00:00.0000, 3.278508917903173E+07, -2.592860741072411E+08, 1.655177749128080E+08,
2461575.500000000, A.D. 2027-Jun-19 00:00:00.0000, 4.336425912392366E+07, -2.574395146367208E+08, 1.621554532763315E+08,
2461582.500000000, A.D. 2027-Jun-26 00:00:00.0000, 5.387086840374154E+07, -2.551624337740635E+08, 1.585219560019581E+08,
2461589.500000000, A.D. 2027-Jul-03 00:00:00.0000, 6.428543332888878E+07, -2.524496033044083E+08, 1.546177461499633E+08,
2461596.500000000, A.D. 2027-Jul-10 00:00:00.0000, 7.458769771615925E+07, -2.492959764191251E+08, 1.504435633907326E+08,
2461603.500000000, A.D. 2027-Jul-17 00:00:00.0000, 8.475657419684796E+07, -2.456967247588646E+08, 1.460004603599430E+08,
2461610.500000000, A.D. 2027-Jul-24 00:00:00.0000, 9.477008342268319E+07, -2.416472822322235E+08, 1.412898438079912E+08,
2461617.500000000, A.D. 2027-Jul-31 00:00:00.0000, 1.046052917968671E+08, -2.371433962831829E+08, 1.363135210853500E+08,
2461624.500000000, A.D. 2027-Aug-07 00:00:00.0000, 1.142382478610562E+08, -2.321811864884235E+08, 1.310737526952783E+08,
2461631.500000000, A.D. 2027-Aug-14 00:00:00.0000, 1.236439155164383E+08, -2.267572119047311E+08, 1.255733117805821E+08,
2461638.500000000, A.D. 2027-Aug-21 00:00:00.0000, 1.327961053657271E+08, -2.208685518400757E+08, 1.198155509456871E+08,
2461645.500000000, A.D. 2027-Aug-28 00:00:00.0000, 1.416674085149394E+08, -2.145129003095970E+08, 1.138044769896702E+08,
2461652.500000000, A.D. 2027-Sep-04 00:00:00.0000, 1.502291328552013E+08, -2.076886733041520E+08, 1.075448347081087E+08,
2461659.500000000, A.D. 2027-Sep-11 00:00:00.0000, 1.584512419919888E+08, -2.003951313275815E+08, 1.010422007172690E+08,
2461666.500000000, A.D. 2027-Sep-18 00:00:00.0000, 1.663022989639121E+08, -1.926325198042479E+08, 9.430308812660374E+07,
2461673.500000000, A.D. 2027-Sep-25 00:00:00.0000, 1.737494175339772E+08, -1.844022295244503E+08, 8.733506290444149E+07,
2461680.500000000, A.D. 2027-Oct-02 00:00:00.0000, 1.807582243407121E+08, -1.757069792949252E+08, 8.014687274025442E+07,
2461687.500000000, A.D. 2027-Oct-09 00:00:00.0000, 1.872928359288585E+08, -1.665510230416888E+08, 7.274858908001220E+07,
2461694.500000000, A.D. 2027-Oct-16 00:00:00.0000, 1.933158556440820E+08, -1.569403836191261E+08, 6.515176278368802E+07,
2461701.500000000, A.D. 2027-Oct-23 00:00:00.0000, 1.987883966515892E+08, -1.468831153496732E+08, 5.736959350579550E+07,
2461708.500000000, A.D. 2027-Oct-30 00:00:00.0000, 2.036701386942815E+08, -1.363895963465345E+08, 4.941711246571031E+07,
2461715.500000000, A.D. 2027-Nov-06 00:00:00.0000, 2.079194260440125E+08, -1.254728505653205E+08, 4.131137778794009E+07,
2461722.500000000, A.D. 2027-Nov-13 00:00:00.0000, 2.114934147463565E+08, -1.141489018001180E+08, 3.307168047481990E+07,
2461729.500000000, A.D. 2027-Nov-20 00:00:00.0000, 2.143482836650352E+08, -1.024371605600473E+08, 2.471975739114575E+07,
2461736.500000000, A.D. 2027-Nov-27 00:00:00.0000, 2.164395240253122E+08, -9.036083768693675E+07, 1.628000661852448E+07,
2461743.500000000, A.D. 2027-Dec-04 00:00:00.0000, 2.177223197777621E+08, -7.794737805005258E+07, 7.779698747453406E+06,
2461750.500000000, A.D. 2027-Dec-11 00:00:00.0000, 2.181520333876536E+08, -6.522890618443940E+07, -7.508250029349439E+05,
2461757.500000000, A.D. 2027-Dec-18 00:00:00.0000, 2.176848125110334E+08, -5.224267092617267E+07, -9.277979794007149E+06,
2461764.500000000, A.D. 2027-Dec-25 00:00:00.0000, 2.162783316703476E+08, -3.903147071277011E+07, -1.776480441504141E+07,
2461771.500000000, A.D. 2028-Jan-01 00:00:00.0000, 2.138926798810550E+08, -2.564403530426549E+07, -2.617088722096704E+07,
$$EOE